GLOBALSTAR M023         
1 25621U 99004A   24177.85682920 -.00000002  00000+0  56679-3 0  9997
2 25621  52.0122  58.4440 0010914  61.1441  18.6111 12.62459888170725
GLOBALSTAR M040         
1 25622U 99004B   24178.01672507 -.00000118  00000+0 -82421-4 0  9991
2 25622  51.9931  61.5836 0001081  21.7457  87.6698 12.61976279170284
GLOBALSTAR M036         
1 25623U 99004C   24177.97395789 -.00000043  00000+0  57493-3 0  9996
2 25623  51.9967  99.1974 0011573  85.1967 355.8922 11.86568121136675
GLOBALSTAR M038         
1 25624U 99004D   24178.01398894 -.00000076  00000+0  15777-3 0  9998
2 25624  51.9993  17.2886 0002488  49.2590  72.3429 12.32501852158459
GLOBALSTAR M022         
1 25649U 99012A   24178.31868525 -.00000061  00000+0  30498-3 0  9991
2 25649  52.0006 178.3014 0002484 188.6412 274.2844 12.02484434133564
GLOBALSTAR M041         
1 25650U 99012B   24177.88902053 -.00000150  00000+0 -83407-3 0  9997
2 25650  52.0036  50.0559 0002610 358.6795   1.4034 11.96656564135620
GLOBALSTAR M046         
1 25651U 99012C   24178.22614983  .00000041  00000+0  14343-2 0  9998
2 25651  52.0032 141.6801 0002230 271.0617 193.2684 12.09392624140595
GLOBALSTAR M037         
1 25652U 99012D   24178.21549417 -.00000104  00000+0  13350-5 0  9998
2 25652  51.9973 188.1031 0001841 120.8856 319.3334 12.62409365166368
